<?xml version='1.0' encoding='utf-8'?>
<ns0:quakeml xmlns:ns0="http://quakeml.org/xmlns/quakeml/1.2" xmlns="http://quakeml.org/xmlns/bed/1.2">
  <eventParameters publicID="smi:local/fbf9a28d-58b4-4ee2-9c73-3fa2ac0d7f92">
    <event publicID="smi:local/f21a1ec8-719f-423c-8fed-0202703d950c">
      <origin publicID="smi:local/a05e7a6f-5037-4a3a-a2f6-6a97f3d87bd9">
        <time>
          <value>2007-12-05T19:16:32.000000Z</value>
        </time>
        <latitude>
          <value>41.8005</value>
        </latitude>
        <longitude>
          <value>-110.6409</value>
        </longitude>
        <depth>
          <value>10.1296</value>
        </depth>
      </origin>
      <magnitude publicID="smi:local/d4ccca3a-9927-458b-910f-502ef572e2ce">
        <mag>
          <value>2.24</value>
        </mag>
        <type>ML</type>
      </magnitude>
      <pick publicID="smi:local/ca50f6c3-cc80-4840-9830-b7703a570e2e">
        <time>
          <value>2007-12-05T19:16:40.071504Z</value>
        </time>
        <waveformID locationCode="" networkCode="TA" stationCode="M17A"></waveformID>
        <phaseHint>P</phaseHint>
      </pick>
    </event>
    <event publicID="smi:local/c7f9488a-60ab-4a8e-a31b-d7a636302e01">
      <origin publicID="smi:local/fcc32c02-ad5c-49fb-9eeb-ed4c96891f68">
        <time>
          <value>2007-12-19T17:56:18.000000Z</value>
        </time>
        <latitude>
          <value>41.7205</value>
        </latitude>
        <longitude>
          <value>-110.6486</value>
        </longitude>
        <depth>
          <value>4.077</value>
        </depth>
      </origin>
      <magnitude publicID="smi:local/b7459a54-d9a6-40c7-baab-0a8d3dd73e96">
        <mag>
          <value>2.36</value>
        </mag>
        <type>ML</type>
      </magnitude>
      <pick publicID="smi:local/8819bde1-7d1a-4d50-b8b4-49d142b994b9">
        <time>
          <value>2007-12-19T17:56:24.499538Z</value>
        </time>
        <waveformID locationCode="" networkCode="TA" stationCode="M17A"></waveformID>
        <phaseHint>P</phaseHint>
      </pick>
      <pick publicID="smi:local/13db8c43-7430-4a50-b244-8b8f7fe4670b">
        <time>
          <value>2007-12-19T17:56:29.215437Z</value>
        </time>
        <waveformID locationCode="" networkCode="TA" stationCode="M18A"></waveformID>
        <phaseHint>P</phaseHint>
      </pick>
    </event>
    <event publicID="smi:local/210665eb-9328-4054-af4f-51c79c4cb2f6">
      <origin publicID="smi:local/207e8c14-a28a-4a85-8a2e-00e9d9cdf13d">
        <time>
          <value>2007-12-21T18:30:09.000000Z</value>
        </time>
        <latitude>
          <value>41.7669</value>
        </latitude>
        <longitude>
          <value>-110.6122</value>
        </longitude>
        <depth>
          <value>8.9715</value>
        </depth>
      </origin>
      <magnitude publicID="smi:local/ccc48328-6b90-4f3f-8689-d87355c7d21f">
        <mag>
          <value>2.17</value>
        </mag>
        <type>ML</type>
      </magnitude>
      <pick publicID="smi:local/17ca6a68-dc0b-4290-9402-129b5b2c9114">
        <time>
          <value>2007-12-21T18:30:14.713554Z</value>
        </time>
        <waveformID locationCode="" networkCode="TA" stationCode="M17A"></waveformID>
        <phaseHint>P</phaseHint>
      </pick>
      <pick publicID="smi:local/0309de2c-2045-44cc-8f74-06ac0ce2ec83">
        <time>
          <value>2007-12-21T18:30:18.643471Z</value>
        </time>
        <waveformID locationCode="" networkCode="TA" stationCode="M18A"></waveformID>
        <phaseHint>P</phaseHint>
      </pick>
    </event>
    <event publicID="smi:local/7e9660d0-00e2-4886-8cf9-52f6f735f795">
      <origin publicID="smi:local/52cb296b-9910-4252-95e3-f77bf9487217">
        <time>
          <value>2007-12-28T20:00:14.000000Z</value>
        </time>
        <latitude>
          <value>41.704</value>
        </latitude>
        <longitude>
          <value>-110.641</value>
        </longitude>
        <depth>
          <value>0.7</value>
        </depth>
      </origin>
      <magnitude publicID="smi:local/4194c982-29db-4678-a884-943add781401">
        <mag>
          <value>-999.0</value>
        </mag>
        <type>ML</type>
      </magnitude>
      <pick publicID="smi:local/e5c49029-4007-48a5-bcd8-9b37643a82a9">
        <time>
          <value>2007-12-28T20:00:20.033929Z</value>
        </time>
        <waveformID locationCode="" networkCode="TA" stationCode="M17A"></waveformID>
        <phaseHint>P</phaseHint>
      </pick>
      <pick publicID="smi:local/d741fb57-8f4b-43dd-8625-6ff225f5c7df">
        <time>
          <value>2007-12-28T20:00:25.043495Z</value>
        </time>
        <waveformID locationCode="" networkCode="TA" stationCode="M18A"></waveformID>
        <phaseHint>P</phaseHint>
      </pick>
    </event>
    <event publicID="smi:local/11d7e9f2-1336-4c6b-8c47-e16cc180a1f2">
      <origin publicID="smi:local/05cebe8d-f24f-4b6c-becb-362bdf068239">
        <time>
          <value>2008-01-08T18:48:09.000000Z</value>
        </time>
        <latitude>
          <value>41.7231</value>
        </latitude>
        <longitude>
          <value>-110.6232</value>
        </longitude>
        <depth>
          <value>10.5796</value>
        </depth>
      </origin>
      <magnitude publicID="smi:local/26c40255-61af-4350-873e-3cbff814f2b9">
        <mag>
          <value>2.03</value>
        </mag>
        <type>ML</type>
      </magnitude>
      <pick publicID="smi:local/6209cf6c-d1ad-499f-abe3-d556b1a440ea">
        <time>
          <value>2008-01-08T18:48:13.927571Z</value>
        </time>
        <waveformID locationCode="" networkCode="TA" stationCode="M17A"></waveformID>
        <phaseHint>P</phaseHint>
      </pick>
      <pick publicID="smi:local/05574c6d-dc52-4b53-b7d0-534b1df447bb">
        <time>
          <value>2008-01-08T18:48:24.931337Z</value>
        </time>
        <waveformID locationCode="" networkCode="TA" stationCode="M18A"></waveformID>
        <phaseHint>P</phaseHint>
      </pick>
    </event>
    <event publicID="smi:local/15c6c7a4-ecef-425e-b07f-1f2ec8dbb1e4">
      <origin publicID="smi:local/abf1155e-0814-4c86-aaa1-9b69dc9c681d">
        <time>
          <value>2008-01-14T18:02:55.000000Z</value>
        </time>
        <latitude>
          <value>41.8005</value>
        </latitude>
        <longitude>
          <value>-110.6353</value>
        </longitude>
        <depth>
          <value>12.0948</value>
        </depth>
      </origin>
      <magnitude publicID="smi:local/d7daac13-3637-4893-9ffd-c95574603309">
        <mag>
          <value>2.38</value>
        </mag>
        <type>ML</type>
      </magnitude>
      <pick publicID="smi:local/f6dba353-3f9e-43a7-aa8e-f21bc39f19e4">
        <time>
          <value>2008-01-14T18:03:03.071504Z</value>
        </time>
        <waveformID locationCode="" networkCode="TA" stationCode="M17A"></waveformID>
        <phaseHint>P</phaseHint>
      </pick>
      <pick publicID="smi:local/1bb40fbe-96a2-4c95-8ab5-29b83250729b">
        <time>
          <value>2008-01-14T18:03:05.429454Z</value>
        </time>
        <waveformID locationCode="" networkCode="TA" stationCode="M18A"></waveformID>
        <phaseHint>P</phaseHint>
      </pick>
    </event>
    <event publicID="smi:local/e5f18c6a-438c-4427-ab06-8ea64638281e">
      <origin publicID="smi:local/2db17558-36ea-4ca2-9d63-9cd760d5e281">
        <time>
          <value>2008-01-21T20:01:06.000000Z</value>
        </time>
        <latitude>
          <value>41.8071</value>
        </latitude>
        <longitude>
          <value>-110.6136</value>
        </longitude>
        <depth>
          <value>5.6228</value>
        </depth>
      </origin>
      <magnitude publicID="smi:local/cfd0fbd8-49af-44ba-a6df-70c0b4dd4454">
        <mag>
          <value>2.58</value>
        </mag>
        <type>ML</type>
      </magnitude>
      <pick publicID="smi:local/39cb5411-f902-40d8-ba32-9fba7b60854d">
        <time>
          <value>2008-01-21T20:01:11.713552Z</value>
        </time>
        <waveformID locationCode="" networkCode="TA" stationCode="M17A"></waveformID>
        <phaseHint>P</phaseHint>
      </pick>
      <pick publicID="smi:local/88c19422-e699-4d32-8008-f6753ca754ec">
        <time>
          <value>2008-01-21T20:01:18.001420Z</value>
        </time>
        <waveformID locationCode="" networkCode="TA" stationCode="M18A"></waveformID>
        <phaseHint>P</phaseHint>
      </pick>
    </event>
    <event publicID="smi:local/ce643cc2-ecaf-4305-916d-7d4362a47194">
      <origin publicID="smi:local/07367c47-0417-40b5-9af9-af5899f95a40">
        <time>
          <value>2008-01-22T19:24:54.000000Z</value>
        </time>
        <latitude>
          <value>41.7221</value>
        </latitude>
        <longitude>
          <value>-110.6176</value>
        </longitude>
        <depth>
          <value>8.5732</value>
        </depth>
      </origin>
      <magnitude publicID="smi:local/8bf9c120-f0f1-40ea-8e71-63b08eda1416">
        <mag>
          <value>2.74</value>
        </mag>
        <type>ML</type>
      </magnitude>
      <pick publicID="smi:local/b4803d15-c385-4194-a6f5-fdf0c3288309">
        <time>
          <value>2008-01-22T19:24:59.713554Z</value>
        </time>
        <waveformID locationCode="" networkCode="TA" stationCode="M17A"></waveformID>
        <phaseHint>P</phaseHint>
      </pick>
      <pick publicID="smi:local/de221187-cb95-42a3-ac5d-d3c8032941d4">
        <time>
          <value>2008-01-22T19:25:06.787404Z</value>
        </time>
        <waveformID locationCode="" networkCode="TA" stationCode="M18A"></waveformID>
        <phaseHint>P</phaseHint>
      </pick>
    </event>
    <event publicID="smi:local/0dab2c73-505d-41fd-8122-40690f02b651">
      <origin publicID="smi:local/ca7401d3-dd46-424b-b491-cb043d932bde">
        <time>
          <value>2008-02-15T20:00:08.000000Z</value>
        </time>
        <latitude>
          <value>41.7092</value>
        </latitude>
        <longitude>
          <value>-110.6404</value>
        </longitude>
        <depth>
          <value>9.4375</value>
        </depth>
      </origin>
      <magnitude publicID="smi:local/a1d01f67-48f2-4041-8644-81f1d49af5da">
        <mag>
          <value>2.06</value>
        </mag>
        <type>ML</type>
      </magnitude>
      <pick publicID="smi:local/63abd560-1524-463f-ae83-bf5943f7ec13">
        <time>
          <value>2008-02-15T20:00:12.927571Z</value>
        </time>
        <waveformID locationCode="" networkCode="TA" stationCode="M17A"></waveformID>
        <phaseHint>P</phaseHint>
      </pick>
      <pick publicID="smi:local/774b5a8d-0368-4236-8905-d8276dabc04b">
        <time>
          <value>2008-02-15T20:00:20.001420Z</value>
        </time>
        <waveformID locationCode="" networkCode="TA" stationCode="M18A"></waveformID>
        <phaseHint>P</phaseHint>
      </pick>
    </event>
    <event publicID="smi:local/c11e71d5-d1d4-4a29-a245-ee54a41fdd89">
      <origin publicID="smi:local/5fee3dc1-c22d-4058-82ce-0c04fbb9df3b">
        <time>
          <value>2008-02-15T20:05:25.000000Z</value>
        </time>
        <latitude>
          <value>41.722</value>
        </latitude>
        <longitude>
          <value>-110.6438</value>
        </longitude>
        <depth>
          <value>5.0005</value>
        </depth>
      </origin>
      <magnitude publicID="smi:local/5e97b76c-76ac-42e7-b711-ce30dd366ee3">
        <mag>
          <value>2.32</value>
        </mag>
        <type>ML</type>
      </magnitude>
      <pick publicID="smi:local/5a70dbec-f84b-4bb1-825c-dbc3f49ed39d">
        <time>
          <value>2008-02-15T20:05:29.141587Z</value>
        </time>
        <waveformID locationCode="" networkCode="TA" stationCode="M17A"></waveformID>
        <phaseHint>P</phaseHint>
      </pick>
      <pick publicID="smi:local/f06a869f-7959-4228-a4a9-3d8dbba5e5d4">
        <time>
          <value>2008-02-15T20:05:43.289287Z</value>
        </time>
        <waveformID locationCode="" networkCode="TA" stationCode="M18A"></waveformID>
        <phaseHint>P</phaseHint>
      </pick>
    </event>
    <event publicID="smi:local/09d7ec30-f650-44a5-8362-e27c47eeb24a">
      <origin publicID="smi:local/1a0bd37a-d8f2-407c-bcf7-76b79ded68e8">
        <time>
          <value>2008-02-18T19:04:15.000000Z</value>
        </time>
        <latitude>
          <value>41.7207</value>
        </latitude>
        <longitude>
          <value>-110.6375</value>
        </longitude>
        <depth>
          <value>2.5544</value>
        </depth>
      </origin>
      <magnitude publicID="smi:local/e3256db8-6057-4910-a52c-df26f3cec7eb">
        <mag>
          <value>2.72</value>
        </mag>
        <type>ML</type>
      </magnitude>
      <pick publicID="smi:local/ed4b5268-fc89-4e60-9a43-cd345bc80ffa">
        <time>
          <value>2008-02-18T19:04:20.713555Z</value>
        </time>
        <waveformID locationCode="" networkCode="TA" stationCode="M17A"></waveformID>
        <phaseHint>P</phaseHint>
      </pick>
      <pick publicID="smi:local/17db88cc-c66d-46a9-a43e-40b4623744ec">
        <time>
          <value>2008-02-18T19:04:26.215438Z</value>
        </time>
        <waveformID locationCode="" networkCode="TA" stationCode="M18A"></waveformID>
        <phaseHint>P</phaseHint>
      </pick>
    </event>
    <event publicID="smi:local/0177dcd1-a3c0-4210-abfc-d3e9034443b7">
      <origin publicID="smi:local/c58dac3f-ee55-4687-8dfc-471bd5c170be">
        <time>
          <value>2008-02-21T17:41:33.000000Z</value>
        </time>
        <latitude>
          <value>41.7385</value>
        </latitude>
        <longitude>
          <value>-110.6286</value>
        </longitude>
        <depth>
          <value>1.6012</value>
        </depth>
      </origin>
      <magnitude publicID="smi:local/8c8a17a5-9ae6-4bcb-8fe4-221d5249736e">
        <mag>
          <value>2.37</value>
        </mag>
        <type>ML</type>
      </magnitude>
      <pick publicID="smi:local/4df3915b-4231-4bc3-8899-ca4439a6fed5">
        <time>
          <value>2008-02-21T17:41:38.713554Z</value>
        </time>
        <waveformID locationCode="" networkCode="TA" stationCode="M17A"></waveformID>
        <phaseHint>P</phaseHint>
      </pick>
      <pick publicID="smi:local/ef862cd5-7dc7-4cc0-8a19-2318506ee824">
        <time>
          <value>2008-02-21T17:41:44.215437Z</value>
        </time>
        <waveformID locationCode="" networkCode="TA" stationCode="M18A"></waveformID>
        <phaseHint>P</phaseHint>
      </pick>
    </event>
    <event publicID="smi:local/eb0f3012-d099-4037-a57c-aef49b26e974">
      <origin publicID="smi:local/78e4a2ea-1f72-485b-85b6-4662c7329764">
        <time>
          <value>2008-02-25T20:26:24.000000Z</value>
        </time>
        <latitude>
          <value>41.7645</value>
        </latitude>
        <longitude>
          <value>-110.6609</value>
        </longitude>
        <depth>
          <value>0.0</value>
        </depth>
      </origin>
      <magnitude publicID="smi:local/c830b2b6-9c81-4c38-93a4-785a0abfcdef">
        <mag>
          <value>2.44</value>
        </mag>
        <type>ML</type>
      </magnitude>
      <pick publicID="smi:local/0ae21017-27c1-45cf-bd16-ebb7345d541e">
        <time>
          <value>2008-02-25T20:26:28.141587Z</value>
        </time>
        <waveformID locationCode="" networkCode="TA" stationCode="M17A"></waveformID>
        <phaseHint>P</phaseHint>
      </pick>
      <pick publicID="smi:local/aebd00b9-7063-4b01-b3f9-be6b86a2fd1d">
        <time>
          <value>2008-02-25T20:26:33.643471Z</value>
        </time>
        <waveformID locationCode="" networkCode="TA" stationCode="M18A"></waveformID>
        <phaseHint>P</phaseHint>
      </pick>
    </event>
    <event publicID="smi:local/11d7dee0-89a2-4471-b356-864801b7a23c">
      <origin publicID="smi:local/62e26d69-573d-4c39-bef1-34564ef0dab4">
        <time>
          <value>2008-02-27T18:42:04.000000Z</value>
        </time>
        <latitude>
          <value>41.7367</value>
        </latitude>
        <longitude>
          <value>-110.6618</value>
        </longitude>
        <depth>
          <value>0.0</value>
        </depth>
      </origin>
      <magnitude publicID="smi:local/fe18dbd8-2fe5-4c9f-957a-b2cd9b4991e9">
        <mag>
          <value>2.44</value>
        </mag>
        <type>ML</type>
      </magnitude>
      <pick publicID="smi:local/6ddac12c-3018-4646-96ec-b9d5ecb74822">
        <time>
          <value>2008-02-27T18:42:10.029864Z</value>
        </time>
        <waveformID locationCode="" networkCode="TA" stationCode="M17A"></waveformID>
        <phaseHint>P</phaseHint>
      </pick>
      <pick publicID="smi:local/9a1e64a8-e7a9-4384-afcd-ee5edc0063a1">
        <time>
          <value>2008-02-27T18:42:15.122643Z</value>
        </time>
        <waveformID locationCode="" networkCode="TA" stationCode="M18A"></waveformID>
        <phaseHint>P</phaseHint>
      </pick>
    </event>
    <event publicID="smi:local/81d0ad6d-f60e-4262-af4c-88bfe6af31c8">
      <origin publicID="smi:local/eeb6a979-5ded-4819-8e74-97cf6b04a5ad">
        <time>
          <value>2008-03-14T18:18:25.000000Z</value>
        </time>
        <latitude>
          <value>41.7171</value>
        </latitude>
        <longitude>
          <value>-110.6154</value>
        </longitude>
        <depth>
          <value>9.6207</value>
        </depth>
      </origin>
      <magnitude publicID="smi:local/95c160aa-3de0-440e-b202-f1a60b3891dc">
        <mag>
          <value>2.67</value>
        </mag>
        <type>ML</type>
      </magnitude>
      <pick publicID="smi:local/46aaf452-9dff-4cfa-992e-b3bce02290d6">
        <time>
          <value>2008-03-14T18:18:31.246012Z</value>
        </time>
        <waveformID locationCode="" networkCode="TA" stationCode="M17A"></waveformID>
        <phaseHint>P</phaseHint>
      </pick>
      <pick publicID="smi:local/687f1a2b-ec31-4dbd-a8e0-525839dfb3a2">
        <time>
          <value>2008-03-14T18:18:36.776685Z</value>
        </time>
        <waveformID locationCode="" networkCode="TA" stationCode="M18A"></waveformID>
        <phaseHint>P</phaseHint>
      </pick>
    </event>
    <event publicID="smi:local/1d1fcc80-a2a2-4c08-8240-8bc9e3954f73">
      <origin publicID="smi:local/272ebff6-efcc-401c-9622-85938366e39e">
        <time>
          <value>2008-03-17T17:03:37.000000Z</value>
        </time>
        <latitude>
          <value>41.7156</value>
        </latitude>
        <longitude>
          <value>-110.5996</value>
        </longitude>
        <depth>
          <value>0.9692</value>
        </depth>
      </origin>
      <magnitude publicID="smi:local/222278e7-cee7-4152-9718-75d749bff230">
        <mag>
          <value>2.65</value>
        </mag>
        <type>ML</type>
      </magnitude>
      <pick publicID="smi:local/2796344a-83f8-4e53-818b-280ab38f909e">
        <time>
          <value>2008-03-17T17:03:42.713554Z</value>
        </time>
        <waveformID locationCode="" networkCode="TA" stationCode="M17A"></waveformID>
        <phaseHint>P</phaseHint>
      </pick>
      <pick publicID="smi:local/e32e094e-0277-4a67-a1cc-26fd7926e13e">
        <time>
          <value>2008-03-17T17:03:49.001420Z</value>
        </time>
        <waveformID locationCode="" networkCode="TA" stationCode="M18A"></waveformID>
        <phaseHint>P</phaseHint>
      </pick>
    </event>
    <event publicID="smi:local/8ae6967f-7ec0-402e-bc75-de1ecb1edcde">
      <origin publicID="smi:local/4ee23783-da59-4b6f-a47f-7be0339c9379">
        <time>
          <value>2008-03-24T17:54:19.000000Z</value>
        </time>
        <latitude>
          <value>41.7268</value>
        </latitude>
        <longitude>
          <value>-110.6584</value>
        </longitude>
        <depth>
          <value>7.2619</value>
        </depth>
      </origin>
