<?xml version='1.0' encoding='utf-8'?>
<q:quakeml xmlns="http://quakeml.org/xmlns/bed/1.2" xmlns:q="http://quakeml.org/xmlns/quakeml/1.2">
  <eventParameters publicID="smi:local/8df04c7a-6c27-48c1-bdb3-a667cb5c2968">
    <event publicID="smi:local/a0e9726e-a474-4dd7-b93e-4d5e5aadd5d4">
      <preferredOriginID>smi:local/First</preferredOriginID>
      <preferredMagnitudeID>smi:local/2e3e2873-5625-4507-a098-0805091cc47f</preferredMagnitudeID>
      <preferredFocalMechanismID>smi:local/55a23b13-a1cc-466b-accc-b89689a7c1e6</preferredFocalMechanismID>
      <type>mining explosion</type>
      <description>
        <text>some text about the EQ</text>
        <type>earthquake name</type>
      </description>
      <origin publicID="smi:local/First">
        <time>
          <value>2016-05-04T12:00:00.000000Z</value>
          <uncertainty>0.01</uncertainty>
        </time>
        <latitude>
          <value>47.48589325</value>
          <uncertainty>0.021</uncertainty>
        </latitude>
        <longitude>
          <value>-111.12525</value>
          <uncertainty>0.02</uncertainty>
        </longitude>
        <depth>
          <value>2.123</value>
          <uncertainty>1.22</uncertainty>
        </depth>
        <depthType>from location</depthType>
        <timeFixed>false</timeFixed>
        <epicenterFixed>false</epicenterFixed>
        <referenceSystemID>smi:local/86e209b8-7da1-4c88-8e2b-549dd3de9937</referenceSystemID>
        <methodID>smi:local/983ddf01-0d9b-4dd2-bd2c-6e316b171f12</methodID>
        <earthModelID>smi:local/5f57ef6b-b44c-4412-a63e-78d1eed54e29</earthModelID>
        <compositeTime>
          <year>
            <value>2016</value>
          </year>
          <month>
            <value>5</value>
          </month>
          <day>
            <value>4</value>
          </day>
          <hour>
            <value>0</value>
          </hour>
          <minute>
            <value>0</value>
          </minute>
          <second>
            <value>0.0</value>
            <uncertainty>0.01</uncertainty>
          </second>
        </compositeTime>
        <quality>
          <usedPhaseCount>1</usedPhaseCount>
          <associatedStationCount>1</associatedStationCount>
          <usedStationCount>1</usedStationCount>
          <depthPhaseCount>1</depthPhaseCount>
          <standardError>0.02</standardError>
          <azimuthalGap>0.12</azimuthalGap>
          <groundTruthLevel>GT0</groundTruthLevel>
        </quality>
        <type>hypocenter</type>
        <region>US</region>
        <evaluationMode>manual</evaluationMode>
        <evaluationStatus>final</evaluationStatus>
        <originUncertainty>
          <preferredDescription>uncertainty ellipse</preferredDescription>
          <horizontalUncertainty>1.2</horizontalUncertainty>
          <minHorizontalUncertainty>0.12</minHorizontalUncertainty>
          <maxHorizontalUncertainty>2.2</maxHorizontalUncertainty>
          <confidenceEllipsoid>
            <semiMajorAxisLength>12.0</semiMajorAxisLength>
            <semiMinorAxisLength>12.0</semiMinorAxisLength>
            <majorAxisPlunge>12.0</majorAxisPlunge>
            <majorAxisRotation>12.0</majorAxisRotation>
          </confidenceEllipsoid>
        </originUncertainty>
        <arrival publicID="smi:local/Ar1">
          <pickID>smi:local/386644a6-d199-4ac2-94dc-647295f3a89b</pickID>
          <phase>P</phase>
          <timeCorrection>0.2</timeCorrection>
          <azimuth>12.0</azimuth>
          <distance>10.0</distance>
          <takeoffAngle>
            <value>15.0</value>
            <uncertainty>10.2</uncertainty>
          </takeoffAngle>
          <timeResidual>0.02</timeResidual>
          <horizontalSlownessResidual>12.2</horizontalSlownessResidual>
          <backazimuthResidual>12.2</backazimuthResidual>
          <timeWeight>0.23</timeWeight>
          <horizontalSlownessWeight>12.0</horizontalSlownessWeight>
          <backazimuthWeight>12.0</backazimuthWeight>
          <earthModelID>smi:local/9310a275-573a-47b7-944e-45972f7070c0</earthModelID>
        </arrival>
      </origin>
      <magnitude publicID="smi:local/2e3e2873-5625-4507-a098-0805091cc47f">
        <mag>
          <value>5.5</value>
          <uncertainty>0.01</uncertainty>
        </mag>
        <type>Mw</type>
        <originID>smi:local/First</originID>
        <stationCount>1</stationCount>
        <stationMagnitudeContribution>
          <stationMagnitudeID>smi:local/7397c32b-6097-4958-ac96-651a958f7863</stationMagnitudeID>
        </stationMagnitudeContribution>
      </magnitude>
      <stationMagnitude publicID="smi:local/7397c32b-6097-4958-ac96-651a958f7863">
        <originID>smi:local/First</originID>
        <mag>
          <value>2.24</value>
        </mag>
      </stationMagnitude>
      <pick publicID="smi:local/386644a6-d199-4ac2-94dc-647295f3a89b">
        <time>
          <value>2016-05-04T12:00:01.000000Z</value>
        </time>
        <waveformID networkCode="UU" stationCode="FOO" locationCode="--" channelCode="HHZ"></waveformID>
        <filterID>smi:local/41ab79ca-d9c9-45bb-a9db-4df75987be48</filterID>
        <methodID>smi:local/85dbab81-f4c2-4b08-b4f2-6fc179246b63</methodID>
        <horizontalSlowness>
          <value>12.0</value>
          <uncertainty>12</uncertainty>
        </horizontalSlowness>
        <backazimuth>
          <value>122.1</value>
        </backazimuth>
        <slownessMethodID>smi:local/slow</slownessMethodID>
        <onset>emergent</onset>
        <phaseHint>P</phaseHint>
        <polarity>positive</polarity>
        <evaluationMode>manual</evaluationMode>
        <evaluationStatus>final</evaluationStatus>
        <comment id="smi:local/663faddc-33df-4486-b8d0-cd1a83ab98be">
          <text/>
        </comment>
        <comment id="smi:local/f154cdef-589e-4db4-92f5-db3e7aa991b7">
          <text/>
        </comment>
        <comment id="smi:local/24aba464-a572-402e-b191-a1bc086c6c35">
          <text/>
        </comment>
        <creationInfo>
          <author>Indago</author>
          <creationTime>2021-01-20T19:26:41.533563Z</creationTime>
          <version>10.10</version>
        </creationInfo>
      </pick>
      <amplitude publicID="smi:local/b0b5f5f8-e8ba-4122-9a86-695050459d3d">
        <genericAmplitude>
          <value>0.0012</value>
        </genericAmplitude>
        <type>A</type>
        <unit>m</unit>
        <period>
          <value>1.0</value>
        </period>
        <timeWindow>
          <reference>2016-05-04T12:00:00.000000Z</reference>
          <begin>1.2</begin>
          <end>2.2</end>
        </timeWindow>
        <pickID>smi:local/386644a6-d199-4ac2-94dc-647295f3a89b</pickID>
      </amplitude>
      <focalMechanism publicID="smi:local/55a23b13-a1cc-466b-accc-b89689a7c1e6">
        <azimuthalGap>12.0</azimuthalGap>
        <stationPolarityCount>12</stationPolarityCount>
        <misfit>0.12</misfit>
        <stationDistributionRatio>0.12</stationDistributionRatio>
        <nodalPlanes preferredPlane="2">
          <nodalPlane1>
            <strike>
              <value>12.0</value>
            </strike>
            <dip>
              <value>2.0</value>
            </dip>
            <rake>
              <value>12.0</value>
            </rake>
          </nodalPlane1>
          <nodalPlane2>
            <strike>
              <value>12.0</value>
            </strike>
            <dip>
              <value>2.0</value>
            </dip>
            <rake>
              <value>12.0</value>
            </rake>
          </nodalPlane2>
        </nodalPlanes>
        <momentTensor publicID="smi:local/215e19bb-e2ba-4074-852a-6a8b6b7275f0">
          <dataUsed>
            <waveType>body waves</waveType>
            <stationCount>12</stationCount>
            <componentCount>12</componentCount>
            <shortestPeriod>1.0</shortestPeriod>
            <longestPeriod>20.0</longestPeriod>
          </dataUsed>
          <scalarMoment>
            <value>12213.0</value>
          </scalarMoment>
          <tensor>
            <Mrr>
              <value>12.0</value>
              <uncertainty>0.01</uncertainty>
            </Mrr>
            <Mtt>
              <value>12.0</value>
            </Mtt>
            <Mpp>
              <value>12.0</value>
            </Mpp>
            <Mrt>
              <value>12.0</value>
            </Mrt>
            <Mrp>
              <value>12.0</value>
            </Mrp>
            <Mtp>
              <value>12.0</value>
            </Mtp>
          </tensor>
          <variance>12.23</variance>
          <varianceReduction>98.0</varianceReduction>
          <doubleCouple>0.22</doubleCouple>
          <clvd>0.55</clvd>
          <iso>0.33</iso>
          <sourceTimeFunction>
            <type>triangle</type>
            <duration>0.12</duration>
            <riseTime>0.33</riseTime>
            <decayTime>0.23</decayTime>
          </sourceTimeFunction>
          <methodID>smi:local/894b8712-003a-4fb7-9840-f17a160d1619</methodID>
          <inversionType>general</inversionType>
        </momentTensor>
      </focalMechanism>
    </event>
  </eventParameters>
</q:quakeml>
