<?xml version='1.0' encoding='utf-8'?>
<q:quakeml xmlns:q="http://quakeml.org/xmlns/quakeml/1.2" xmlns="http://quakeml.org/xmlns/bed/1.2">
  <eventParameters publicID="smi:local/0fc9dadc-a073-4ba8-8dc6-8425a3b847e9">
    <event publicID="smi:local/2016-12-13T17-00-09">
      <preferredOriginID>smi:local/d64d6e7e-6da0-4d37-9270-d4d3ad3f35e7</preferredOriginID>
      <preferredMagnitudeID>smi:local/eb8647ab-d3d3-4f32-945b-af0a230c5d57</preferredMagnitudeID>
      <description>
        <text>LR</text>
      </description>
      <comment id="smi:local/8bad3879-8ee9-4b57-84b0-120c12ee29a2">
        <text>OLDACT:REG 16-12-13 12:00 OP:PYTH STATUS:               ID:20161213170009</text>
      </comment>
      <comment id="smi:local/8d4294a8-3e4d-435b-8dbd-cca8981dde6f">
        <text>OLDACT:NEW 16-12-13 17:13 OP:EW   STATUS:               ID:20161213170009</text>
      </comment>
      <comment id="smi:local/1645cc00-a9e5-4383-a4de-033c9e5fd124">
        <text>BINDERID: 6971</text>
      </comment>
      <comment id="smi:local/e98648ed-096a-4d84-979e-95b0b71d7b9e">
        <text>VERSIONID: 2</text>
      </comment>
      <comment id="smi:local/9e0b76f7-0dd7-489f-ad6b-a52c05170ef4">
        <text>CHANNELID: WTPM.ELZ.LF.--</text>
      </comment>
      <comment id="smi:local/3eedfc53-2319-4ae3-a9df-c03d8cb61118">
        <text>CHANNELID: LFSW.ELZ.LF.--</text>
      </comment>
      <comment id="smi:local/399e751b-0428-46f6-ab98-a2064b0ae548">
        <text>CHANNELID: LFS.ELZ.LF.--</text>
      </comment>
      <comment id="smi:local/e3850297-49fd-47de-a72b-10e713eee283">
        <text>CHANNELID: LFGH.HNZ.LF.--</text>
      </comment>
      <comment id="smi:local/f2c503da-5034-4a9c-a299-bce50cbe6326">
        <text>CHANNELID: LFW.HHZ.LF.--</text>
      </comment>
      <comment id="smi:local/a2f0c1be-42f7-48ae-be9e-a38438669e78">
        <text>CHANNELID: LFN.HHZ.LF.--</text>
      </comment>
      <comment id="smi:local/a485f7b5-f300-448a-a042-10fea6050a9c">
        <text>CHANNELID: LFE.HHZ.LF.--</text>
      </comment>
      <comment id="smi:local/5a89cf64-ccfb-4432-8813-5d969e8ff4c2">
        <text>CHANNELID: LFNE.HHZ.LF.--</text>
      </comment>
      <comment id="smi:local/b7ca7edc-0091-49df-9b93-bb30fde007c8">
        <text>CHANNELID: LFRP.HHZ.LF.--</text>
      </comment>
      <comment id="smi:local/c67357b7-aa90-4aa7-b956-0b825b7929e9">
        <text>CHANNELID: MKMT.EHZ.MB.--</text>
      </comment>
      <origin publicID="smi:local/0cdd5350-2ad7-4501-882f-b9b0b35ed482">
        <time>
          <value>2016-12-13T17:00:09.600000Z</value>
        </time>
        <latitude>
          <value>47.483</value>
          <uncertainty>0.32</uncertainty>
        </latitude>
        <longitude>
          <value>-115.792</value>
          <uncertainty>0.32</uncertainty>
        </longitude>
        <depth>
          <value>0.27</value>
          <uncertainty>0.66</uncertainty>
        </depth>
        <quality>
          <associatedPhaseCount>11</associatedPhaseCount>
          <standardError>0.04</standardError>
          <azimuthalGap>63.0</azimuthalGap>
        </quality>
        <creationInfo>
          <agencyID>SMR</agencyID>
          <author>DC</author>
          <creationTime>2016-12-14T08:42:00.000000Z</creationTime>
        </creationInfo>
        <originUncertainty>
          <horizontalUncertainty>0.32</horizontalUncertainty>
        </originUncertainty>
        <arrival publicID="smi:local/9eaede3a-7f9c-4769-9af4-64a0e78a4ba4">
          <pickID>smi:local/3d993c96-f5d5-49b6-942d-993be1ebf522</pickID>
          <phase>P</phase>
          <azimuth>108.0</azimuth>
          <timeResidual>-0.03</timeResidual>
          <timeWeight>1.0</timeWeight>
        </arrival>
        <arrival publicID="smi:local/dbcceb05-85b1-4042-bece-c0350857a550">
          <pickID>smi:local/793567ec-08f6-4078-a6d1-9ed95522852a</pickID>
          <phase>P</phase>
          <azimuth>262.0</azimuth>
          <timeResidual>-0.04</timeResidual>
          <timeWeight>1.0</timeWeight>
        </arrival>
        <arrival publicID="smi:local/5fb5417c-1a5e-4da1-9314-1a68ade7072c">
          <pickID>smi:local/1731d634-5b0d-458a-9251-7aaf940c866d</pickID>
          <phase>P</phase>
          <azimuth>181.0</azimuth>
          <timeResidual>-0.02</timeResidual>
          <timeWeight>1.0</timeWeight>
        </arrival>
        <arrival publicID="smi:local/ad705b0e-a1b1-4a47-8363-23b54aff2f5d">
          <pickID>smi:local/da9d0ef6-f8d8-4cf4-ab0e-699d68392c53</pickID>
          <phase>P</phase>
          <azimuth>232.0</azimuth>
          <timeResidual>0.03</timeResidual>
          <timeWeight>1.0</timeWeight>
        </arrival>
        <arrival publicID="smi:local/5bbd27f3-5fdb-412a-9e95-59c3d8aef349">
          <pickID>smi:local/df72ca56-a6db-4463-9558-13fa79484a54</pickID>
          <phase>P</phase>
          <azimuth>348.0</azimuth>
          <timeResidual>0.03</timeResidual>
          <timeWeight>1.0</timeWeight>
        </arrival>
        <arrival publicID="smi:local/80d3e30b-443d-4b16-9eeb-8d412aefccc3">
          <pickID>smi:local/06563ed6-9a8b-4142-94f2-f361c1a4e5ad</pickID>
          <phase>P</phase>
          <azimuth>302.0</azimuth>
          <timeResidual>0.02</timeResidual>
          <timeWeight>1.0</timeWeight>
        </arrival>
        <arrival publicID="smi:local/0fa3d3c3-b0de-4179-b2bf-634bc2cef522">
          <pickID>smi:local/ed6bc02f-4bf1-4cca-b360-edbd08280768</pickID>
          <phase>P</phase>
          <azimuth>96.0</azimuth>
          <timeResidual>-0.06</timeResidual>
          <timeWeight>1.0</timeWeight>
        </arrival>
        <arrival publicID="smi:local/ea7f2a9c-f8db-4c14-8fee-522fa7c3a3e8">
          <pickID>smi:local/94becf76-764e-4651-b37d-9e6200c1bf5b</pickID>
          <phase>S</phase>
          <azimuth>96.0</azimuth>
          <timeResidual>0.6</timeResidual>
          <timeWeight>1.0</timeWeight>
        </arrival>
        <arrival publicID="smi:local/3d30b594-c753-4df6-8437-0fce9d8584c5">
          <pickID>smi:local/8e1a1f8a-f5fd-49ae-9d68-05b4b2dde1a3</pickID>
          <phase>S</phase>
          <azimuth>96.0</azimuth>
          <timeResidual>0.8</timeResidual>
          <timeWeight>0.25</timeWeight>
        </arrival>
        <arrival publicID="smi:local/07c37ec5-5dc2-4a6d-ac75-380798cab9c0">
          <pickID>smi:local/85767e6a-6029-4667-b19b-3d22786cee6e</pickID>
          <phase>P</phase>
          <azimuth>51.0</azimuth>
          <timeResidual>0.03</timeResidual>
          <timeWeight>1.0</timeWeight>
        </arrival>
        <arrival publicID="smi:local/c846e9fe-fbf0-4ec4-98a1-92f451973ed6">
          <pickID>smi:local/c9708586-7e16-460b-866c-615a0d2858a3</pickID>
          <phase>P</phase>
          <azimuth>158.0</azimuth>
          <timeResidual>0.02</timeResidual>
          <timeWeight>1.0</timeWeight>
        </arrival>
        <arrival publicID="smi:local/92ead07d-70d9-43b2-a357-dcf57a656bfb">
          <pickID>smi:local/4fb93046-4fa0-46ef-8435-3c2e673235e4</pickID>
          <phase>S</phase>
          <azimuth>158.0</azimuth>
          <timeResidual>2.0</timeResidual>
          <timeWeight>1.0</timeWeight>
        </arrival>
        <arrival publicID="smi:local/3f09ee8f-58aa-453b-993d-b35452ea64f3">
          <pickID>smi:local/aeb310ba-db82-4cb0-8e42-3d69f14ff32f</pickID>
          <phase>S</phase>
          <azimuth>158.0</azimuth>
          <timeResidual>2.1</timeResidual>
          <timeWeight>0.25</timeWeight>
        </arrival>
        <arrival publicID="smi:local/a62ea374-ec3b-4cd1-b688-49aa747bd09a">
          <pickID>smi:local/2a393bdb-0447-478f-9d72-67949cc565ef</pickID>
          <phase>P</phase>
          <azimuth>263.0</azimuth>
          <timeResidual>-0.03</timeResidual>
          <timeWeight>1.0</timeWeight>
        </arrival>
        <arrival publicID="smi:local/5a50c913-de11-4922-aa27-7a1d09b77950">
          <pickID>smi:local/77c37de3-a407-4e47-8672-60b1ccbffe88</pickID>
          <phase>P</phase>
          <azimuth>129.0</azimuth>
          <timeResidual>-0.35</timeResidual>
          <timeWeight>0.5</timeWeight>
        </arrival>
      </origin>
      <origin publicID="smi:local/d64d6e7e-6da0-4d37-9270-d4d3ad3f35e7">
        <time>
          <value>2016-12-13T17:00:09.290000Z</value>
        </time>
        <latitude>
          <value>47.48233333333334</value>
        </latitude>
        <longitude>
          <value>-115.79066666666667</value>
        </longitude>
        <depth>
          <value>1.1</value>
          <uncertainty>500.0</uncertainty>
        </depth>
        <methodID>smi:local/pypoinverse_0.0.2/LocateHypoInverse_0.0.0</methodID>
        <quality>
          <associatedPhaseCount>15</associatedPhaseCount>
          <standardError>0.03</standardError>
          <azimuthalGap>64.0</azimuthalGap>
          <minimumDistance>0.0</minimumDistance>
        </quality>
        <creationInfo>
          <agencyID>NIOSH</agencyID>
          <author>swave</author>
          <creationTime>2016-12-27T23:53:28.490682Z</creationTime>
          <version>0.0.0</version>
        </creationInfo>
        <originUncertainty>
          <horizontalUncertainty>290.0</horizontalUncertainty>
        </originUncertainty>
        <arrival publicID="smi:local/fbc5a3de-7757-40cf-aabf-4aec34718940">
          <pickID>smi:local/3d993c96-f5d5-49b6-942d-993be1ebf522</pickID>
          <phase>P</phase>
          <timeCorrection>0.0</timeCorrection>
          <azimuth>112.0</azimuth>
          <distance>0.3</distance>
          <timeResidual>-0.02</timeResidual>
          <timeWeight>1.0</timeWeight>
        </arrival>
        <arrival publicID="smi:local/4528939d-dce4-4ee9-8e0e-8c08b1551b09">
          <pickID>smi:local/793567ec-08f6-4078-a6d1-9ed95522852a</pickID>
          <phase>P</phase>
          <timeCorrection>0.0</timeCorrection>
          <azimuth>266.0</azimuth>
          <distance>0.6</distance>
          <timeResidual>-0.03</timeResidual>
          <timeWeight>1.0</timeWeight>
        </arrival>
        <arrival publicID="smi:local/0eeb0195-f873-41a0-b90e-2223fdbd925e">
          <pickID>smi:local/1731d634-5b0d-458a-9251-7aaf940c866d</pickID>
          <phase>P</phase>
          <timeCorrection>0.0</timeCorrection>
          <azimuth>189.0</azimuth>
          <distance>0.9</distance>
          <timeResidual>0.0</timeResidual>
          <timeWeight>1.0</timeWeight>
        </arrival>
        <arrival publicID="smi:local/e1854fe5-bcc3-4c76-97f9-fc720f96a93a">
          <pickID>smi:local/da9d0ef6-f8d8-4cf4-ab0e-699d68392c53</pickID>
          <phase>P</phase>
          <timeCorrection>0.0</timeCorrection>
          <azimuth>235.0</azimuth>
          <distance>1.5</distance>
          <timeResidual>0.03</timeResidual>
          <timeWeight>1.0</timeWeight>
        </arrival>
        <arrival publicID="smi:local/9c5387cf-9383-420e-b739-3e6730d1647b">
          <pickID>smi:local/df72ca56-a6db-4463-9558-13fa79484a54</pickID>
          <phase>P</phase>
          <timeCorrection>0.0</timeCorrection>
          <azimuth>345.0</azimuth>
          <distance>2.0</distance>
          <timeResidual>0.01</timeResidual>
          <timeWeight>1.0</timeWeight>
        </arrival>
        <arrival publicID="smi:local/addea879-2105-44b4-87bc-e4bc75248fd2">
          <pickID>smi:local/06563ed6-9a8b-4142-94f2-f361c1a4e5ad</pickID>
          <phase>P</phase>
          <timeCorrection>0.0</timeCorrection>
          <azimuth>301.0</azimuth>
          <distance>2.3</distance>
          <timeResidual>-0.02</timeResidual>
          <timeWeight>1.0</timeWeight>
        </arrival>
        <arrival publicID="smi:local/f841a5f7-2d6e-40b4-80c3-d3f11105c340">
          <pickID>smi:local/94becf76-764e-4651-b37d-9e6200c1bf5b</pickID>
          <phase>S</phase>
          <timeCorrection>0.0</timeCorrection>
          <azimuth>96.0</azimuth>
          <distance>2.5</distance>
          <timeResidual>-0.03</timeResidual>
          <timeWeight>1.0</timeWeight>
        </arrival>
        <arrival publicID="smi:local/1ddb4c28-0009-46df-92ce-7fd46a94701b">
          <pickID>smi:local/8e1a1f8a-f5fd-49ae-9d68-05b4b2dde1a3</pickID>
          <phase>S</phase>
          <timeCorrection>0.0</timeCorrection>
          <azimuth>96.0</azimuth>
          <distance>2.5</distance>
          <timeResidual>-0.01</timeResidual>
          <timeWeight>0.25</timeWeight>
        </arrival>
        <arrival publicID="smi:local/3b94e042-0c5c-4d4c-8533-6aa57e16dbc0">
          <pickID>smi:local/ed6bc02f-4bf1-4cca-b360-edbd08280768</pickID>
          <phase>P</phase>
          <timeCorrection>0.0</timeCorrection>
          <azimuth>96.0</azimuth>
          <distance>2.5</distance>
          <timeResidual>-0.03</timeResidual>
          <timeWeight>1.0</timeWeight>
        </arrival>
        <arrival publicID="smi:local/77bb6db2-0ea5-48a5-af9c-bbd04dd0bc7f">
          <pickID>smi:local/85767e6a-6029-4667-b19b-3d22786cee6e</pickID>
          <phase>P</phase>
          <timeCorrection>0.0</timeCorrection>
          <azimuth>49.0</azimuth>
          <distance>2.9</distance>
          <timeResidual>0.03</timeResidual>
          <timeWeight>1.0</timeWeight>
        </arrival>
        <arrival publicID="smi:local/e2f44c76-d833-46b8-9faf-ff82905cd027">
          <pickID>smi:local/aeb310ba-db82-4cb0-8e42-3d69f14ff32f</pickID>
          <phase>S</phase>
          <timeCorrection>0.0</timeCorrection>
          <azimuth>160.0</azimuth>
          <distance>3.5</distance>
          <timeResidual>0.06</timeResidual>
          <timeWeight>0.25</timeWeight>
        </arrival>
        <arrival publicID="smi:local/2f390f7a-db00-4f8a-946b-c8879ab4532b">
          <pickID>smi:local/4fb93046-4fa0-46ef-8435-3c2e673235e4</pickID>
          <phase>S</phase>
          <timeCorrection>0.0</timeCorrection>
          <azimuth>160.0</azimuth>
          <distance>3.5</distance>
          <timeResidual>0.05</timeResidual>
          <timeWeight>1.0</timeWeight>
        </arrival>
        <arrival publicID="smi:local/4acb864c-fa4b-4459-bb2e-9f477f555b23">
          <pickID>smi:local/c9708586-7e16-460b-866c-615a0d2858a3</pickID>
          <phase>P</phase>
          <timeCorrection>0.0</timeCorrection>
          <azimuth>160.0</azimuth>
          <distance>3.5</distance>
          <timeResidual>0.01</timeResidual>
          <timeWeight>1.0</timeWeight>
        </arrival>
        <arrival publicID="smi:local/6678de78-345f-4647-8427-dd721736d329">
          <pickID>smi:local/2a393bdb-0447-478f-9d72-67949cc565ef</pickID>
          <phase>P</phase>
          <timeCorrection>0.0</timeCorrection>
          <azimuth>263.0</azimuth>
          <distance>12.7</distance>
          <timeResidual>-0.03</timeResidual>
          <timeWeight>1.0</timeWeight>
        </arrival>
        <arrival publicID="smi:local/8f25869a-5695-48a8-b5da-69cb58b4db78">
          <pickID>smi:local/77c37de3-a407-4e47-8672-60b1ccbffe88</pickID>
          <phase>P</phase>
          <timeCorrection>0.0</timeCorrection>
          <azimuth>129.0</azimuth>
          <distance>66.3</distance>
          <timeResidual>-0.09</timeResidual>
          <timeWeight>0.5</timeWeight>
        </arrival>
      </origin>
      <magnitude publicID="smi:local/9a7d6b61-3133-4a63-91f4-00e35e8e8868">
        <mag>
          <value>1.9</value>
        </mag>
        <type>ML</type>
        <creationInfo>
          <agencyID>SMR</agencyID>
        </creationInfo>
      </magnitude>
      <magnitude publicID="smi:local/f0377b36-1ff4-48d9-8a6c-b669b8060238">
        <mag>
          <value>1.3</value>
        </mag>
        <type>MC</type>
        <creationInfo>
          <agencyID>SMR</agencyID>
        </creationInfo>
      </magnitude>
      <magnitude publicID="smi:local/eb8647ab-d3d3-4f32-945b-af0a230c5d57">
        <mag>
          <value>1.5718503009560536</value>
          <uncertainty>0.3729419825671789</uncertainty>
          <confidenceLevel>95.0</confidenceLevel>
        </mag>
        <type>ML</type>
        <originID>smi:local/d64d6e7e-6da0-4d37-9270-d4d3ad3f35e7</originID>
        <methodID>smi:local/magpy_version0.0.0</methodID>
        <stationCount>16</stationCount>
        <azimuthalGap>65.22640875338931</azimuthalGap>
        <evaluationMode>automatic</evaluationMode>
        <evaluationStatus>reviewed</evaluationStatus>
        <stationMagnitudeContribution>
          <stationMagnitudeID>smi:local/89609e1d-0e96-427e-8f08-100a6345b9be</stationMagnitudeID>
          <weight>1.0</weight>
        </stationMagnitudeContribution>
        <stationMagnitudeContribution>
          <stationMagnitudeID>smi:local/01d4b7a6-b62f-4d53-97cb-2b21b55b828d</stationMagnitudeID>
          <weight>1.0</weight>
        </stationMagnitudeContribution>
        <stationMagnitudeContribution>
          <stationMagnitudeID>smi:local/6f93e295-f269-4781-a1cb-c34a1933d281</stationMagnitudeID>
          <weight>1.0</weight>
        </stationMagnitudeContribution>
        <stationMagnitudeContribution>
          <stationMagnitudeID>smi:local/b9f340dd-028b-4767-b1d5-4140515f9ce7</stationMagnitudeID>
          <weight>1.0</weight>
        </stationMagnitudeContribution>
        <stationMagnitudeContribution>
          <stationMagnitudeID>smi:local/a3af3400-1959-401f-b03e-55464d6dbf05</stationMagnitudeID>
          <weight>1.0</weight>
        </stationMagnitudeContribution>
        <stationMagnitudeContribution>
          <stationMagnitudeID>smi:local/da9f27a5-7fb0-4ef7-ba1f-366785a239a2</stationMagnitudeID>
          <weight>1.0</weight>
        </stationMagnitudeContribution>
        <stationMagnitudeContribution>
          <stationMagnitudeID>smi:local/e5003400-7a3b-48e3-9198-9496d2efe0c3</stationMagnitudeID>
          <weight>1.0</weight>
        </stationMagnitudeContribution>
        <stationMagnitudeContribution>
          <stationMagnitudeID>smi:local/6ae932e1-e8b0-4d42-af69-72a2fafce4ba</stationMagnitudeID>
          <weight>1.0</weight>
        </stationMagnitudeContribution>
        <stationMagnitudeContribution>
          <stationMagnitudeID>smi:local/4116ec75-ff16-4392-adc3-30bd5cf15c69</stationMagnitudeID>
          <weight>1.0</weight>
        </stationMagnitudeContribution>
        <stationMagnitudeContribution>
          <stationMagnitudeID>smi:local/52973081-1c8a-42b6-998c-cc0fc8af52f4</stationMagnitudeID>
          <weight>1.0</weight>
        </stationMagnitudeContribution>
        <stationMagnitudeContribution>
          <stationMagnitudeID>smi:local/dc3ea187-c6fa-4711-bece-4705e41929a8</stationMagnitudeID>
          <weight>1.0</weight>
        </stationMagnitudeContribution>
        <stationMagnitudeContribution>
          <stationMagnitudeID>smi:local/c80447c1-afbd-413d-9eaf-e01700b9c262</stationMagnitudeID>
          <weight>1.0</weight>
        </stationMagnitudeContribution>
        <stationMagnitudeContribution>
          <stationMagnitudeID>smi:local/5430f2db-0f9c-4ddf-8a6f-e052aa850baa</stationMagnitudeID>
          <weight>1.0</weight>
        </stationMagnitudeContribution>
        <stationMagnitudeContribution>
          <stationMagnitudeID>smi:local/a7e3edc2-9ae5-4fe9-8c7f-fb2cd20789ed</stationMagnitudeID>
          <weight>1.0</weight>
        </stationMagnitudeContribution>
        <stationMagnitudeContribution>
          <stationMagnitudeID>smi:local/345c449e-a5f5-4f6b-a4f9-1b089f7e139c</stationMagnitudeID>
          <weight>1.0</weight>
        </stationMagnitudeContribution>
        <stationMagnitudeContribution>
          <stationMagnitudeID>smi:local/55fd65b8-bb8f-4add-bd5c-607190205acb</stationMagnitudeID>
          <weight>1.0</weight>
        </stationMagnitudeContribution>
        <comment id="smi:local/1c7dc172-1f01-4cbe-8862-4a686752432c">
          <text>Automatic local magnitude calculation using the preferred origin.</text>
          <creationInfo>
            <agencyID>NIOSH</agencyID>
            <author>swave</author>
            <creationTime>2016-12-27T23:53:28.508954Z</creationTime>
