<?xml version='1.0' encoding='utf-8'?>
<q:quakeml xmlns:q="http://quakeml.org/xmlns/quakeml/1.2" xmlns="http://quakeml.org/xmlns/bed/1.2">
  <eventParameters publicID="smi:local/95e2e6b1-b57b-44cf-b79e-d2f9b26f765d">
    <event publicID="smi:local/44889057-bcc7-4d43-9e41-b23a96aed022">
      <preferredOriginID>smi:local/cc6a4d70-545c-4e26-b653-9dc931998c8e</preferredOriginID>
      <preferredMagnitudeID>smi:local/edce0609-7941-4e7e-a5bc-6a800812cde4</preferredMagnitudeID>
      <description>
        <text>LR</text>
      </description>
      <origin publicID="smi:local/db4dc06f-4f77-42f1-b0f5-f77f51be923c">
        <time>
          <value>2010-10-26T12:17:16.700000Z</value>
        </time>
        <latitude>
          <value>54.61655546552849</value>
          <uncertainty>0.29</uncertainty>
        </latitude>
        <longitude>
          <value>-85.71716767548742</value>
          <uncertainty>0.29</uncertainty>
        </longitude>
        <depth>
          <value>-0.42</value>
          <uncertainty>0.86</uncertainty>
        </depth>
        <quality>
          <associatedPhaseCount>8</associatedPhaseCount>
          <standardError>0.03</standardError>
          <azimuthalGap>69.0</azimuthalGap>
        </quality>
        <creationInfo>
          <agencyID>BOB</agencyID>
          <author>DC</author>
          <creationTime>2010-10-31T15:29:00.000000Z</creationTime>
        </creationInfo>
        <originUncertainty>
          <horizontalUncertainty>0.29</horizontalUncertainty>
        </originUncertainty>
        <arrival publicID="smi:local/fa033494-420f-4d68-a746-fca176d89f47">
          <pickID>smi:local/06a43479-5653-4d9e-a3ab-3038f007366d</pickID>
          <phase>P</phase>
          <azimuth>214.0</azimuth>
          <timeResidual>0.0</timeResidual>
          <timeWeight>1.0</timeWeight>
        </arrival>
        <arrival publicID="smi:local/ac8e9595-fd78-43ce-a8aa-0967cc2c0dc6">
          <pickID>smi:local/23a0a18d-ac9c-43ad-bf20-32d1c9b9efb7</pickID>
          <phase>P</phase>
          <azimuth>206.0</azimuth>
          <timeResidual>-0.01</timeResidual>
          <timeWeight>0.5</timeWeight>
        </arrival>
        <arrival publicID="smi:local/01b318f0-a3c9-4212-93d9-800bccc8d0fc">
          <pickID>smi:local/77f2c530-755d-49e9-8472-dac9c76933c3</pickID>
          <phase>P</phase>
          <azimuth>241.0</azimuth>
          <timeResidual>0.02</timeResidual>
          <timeWeight>1.0</timeWeight>
        </arrival>
        <arrival publicID="smi:local/04e06e17-c75a-42da-839e-908d0f46ccaa">
          <pickID>smi:local/01181418-c87c-48f0-ae82-94b6c5ad410f</pickID>
          <phase>P</phase>
          <azimuth>336.0</azimuth>
          <timeResidual>0.01</timeResidual>
          <timeWeight>1.0</timeWeight>
        </arrival>
        <arrival publicID="smi:local/416ae867-f6d3-4487-a5ac-193d00b804dd">
          <pickID>smi:local/55774f2f-f1f6-4d36-bfa6-e3eeab58dce5</pickID>
          <phase>P</phase>
          <azimuth>97.0</azimuth>
          <timeResidual>-0.06</timeResidual>
          <timeWeight>1.0</timeWeight>
        </arrival>
        <arrival publicID="smi:local/298a9531-724a-4964-a24e-eaf12aeb0fb8">
          <pickID>smi:local/452ad255-21c3-4ab3-8c1a-082887f48b7f</pickID>
          <phase>P</phase>
          <azimuth>297.0</azimuth>
          <timeResidual>-0.03</timeResidual>
          <timeWeight>1.0</timeWeight>
        </arrival>
        <arrival publicID="smi:local/644af9a3-1533-464b-b4ba-27f399b47b71">
          <pickID>smi:local/6428d6a1-506b-4b07-979f-5ba4f888b422</pickID>
          <phase>S</phase>
          <azimuth>297.0</azimuth>
          <timeResidual>1.6</timeResidual>
          <timeWeight>0.25</timeWeight>
        </arrival>
        <arrival publicID="smi:local/5f6c943e-6057-4e92-9bde-7133249f749a">
          <pickID>smi:local/2dfefc07-effe-4dc8-a6fb-6e8939b278bd</pickID>
          <phase>P</phase>
          <azimuth>45.0</azimuth>
          <timeResidual>0.03</timeResidual>
          <timeWeight>1.0</timeWeight>
        </arrival>
        <arrival publicID="smi:local/1cc6c69c-3c56-484e-a2a5-a38f7d420a37">
          <pickID>smi:local/1f473f4c-ddee-4e9c-a63f-945c1c600e0c</pickID>
          <phase>P</phase>
          <azimuth>45.0</azimuth>
          <timeResidual>0.03</timeResidual>
          <timeWeight>1.0</timeWeight>
        </arrival>
        <arrival publicID="smi:local/9ab1faee-fe2e-423f-9df1-45f74a062387">
          <pickID>smi:local/5df31d6b-9561-4276-a3bb-15a4d5a49f8d</pickID>
          <phase>S</phase>
          <azimuth>45.0</azimuth>
          <timeResidual>3.5</timeResidual>
          <timeWeight>0.25</timeWeight>
        </arrival>
        <arrival publicID="smi:local/b0841887-28fb-48a6-80b1-4913e4b35cb3">
          <pickID>smi:local/96ad5209-c979-41f3-93fe-98a901016d70</pickID>
          <phase>P</phase>
          <azimuth>165.0</azimuth>
          <timeResidual>0.02</timeResidual>
          <timeWeight>1.0</timeWeight>
        </arrival>
        <arrival publicID="smi:local/443b20b3-d826-4b69-8f73-c94ba6baa72e">
          <pickID>smi:local/2c750b97-df18-4ace-9bc5-5685ca1d1446</pickID>
          <phase>S</phase>
          <azimuth>165.0</azimuth>
          <timeResidual>2.6</timeResidual>
          <timeWeight>1.0</timeWeight>
        </arrival>
      </origin>
      <origin publicID="smi:local/cc6a4d70-545c-4e26-b653-9dc931998c8e">
        <time>
          <value>2010-10-26T12:17:16.350000Z</value>
        </time>
        <latitude>
          <value>54.61770775519253</value>
        </latitude>
        <longitude>
          <value>-85.71623032915478</value>
        </longitude>
        <depth>
          <value>0.67</value>
          <uncertainty>240.0</uncertainty>
        </depth>
        <methodID>smi:local/pypoinverse_0.0.2/LocateHypoInverse_0.0.0</methodID>
        <quality>
          <associatedPhaseCount>11</associatedPhaseCount>
          <standardError>0.03</standardError>
          <azimuthalGap>72.0</azimuthalGap>
          <minimumDistance>0.0</minimumDistance>
        </quality>
        <creationInfo>
          <agencyID>VYMGA</agencyID>
          <author>swave</author>
          <creationTime>2010-11-04T02:43:38.433325Z</creationTime>
          <version>0.0.0</version>
        </creationInfo>
        <originUncertainty>
          <horizontalUncertainty>320.0</horizontalUncertainty>
        </originUncertainty>
        <arrival publicID="smi:local/3a5d6c8e-f272-4bad-ba4c-7bff6134c774">
          <pickID>smi:local/06a43479-5653-4d9e-a3ab-3038f007366d</pickID>
          <phase>P</phase>
          <timeCorrection>0.0</timeCorrection>
          <azimuth>211.0</azimuth>
          <distance>0.2</distance>
          <timeResidual>-0.01</timeResidual>
          <timeWeight>1.0</timeWeight>
        </arrival>
        <arrival publicID="smi:local/eaa980ff-4858-4fda-9c12-7ee27d37ffde">
          <pickID>smi:local/23a0a18d-ac9c-43ad-bf20-32d1c9b9efb7</pickID>
          <phase>P</phase>
          <timeCorrection>0.0</timeCorrection>
          <azimuth>207.0</azimuth>
          <distance>1.1</distance>
          <timeResidual>0.02</timeResidual>
          <timeWeight>0.5</timeWeight>
        </arrival>
        <arrival publicID="smi:local/6ce3b6d5-e84a-46a3-8e1d-2e8a36057b92">
          <pickID>smi:local/77f2c530-755d-49e9-8472-dac9c76933c3</pickID>
          <phase>P</phase>
          <timeCorrection>0.0</timeCorrection>
          <azimuth>239.0</azimuth>
          <distance>1.9</distance>
          <timeResidual>0.04</timeResidual>
          <timeWeight>1.0</timeWeight>
        </arrival>
        <arrival publicID="smi:local/8e7a4de9-b358-4f3d-85e3-7b93c523a76a">
          <pickID>smi:local/01181418-c87c-48f0-ae82-94b6c5ad410f</pickID>
          <phase>P</phase>
          <timeCorrection>0.0</timeCorrection>
          <azimuth>334.0</azimuth>
          <distance>2.0</distance>
          <timeResidual>0.01</timeResidual>
          <timeWeight>1.0</timeWeight>
        </arrival>
        <arrival publicID="smi:local/bf393877-6db7-412f-98e2-64afc1569302">
          <pickID>smi:local/55774f2f-f1f6-4d36-bfa6-e3eeab58dce5</pickID>
          <phase>P</phase>
          <timeCorrection>0.0</timeCorrection>
          <azimuth>99.0</azimuth>
          <distance>2.2</distance>
          <timeResidual>-0.04</timeResidual>
          <timeWeight>1.0</timeWeight>
        </arrival>
        <arrival publicID="smi:local/14e74dba-5e2b-4061-9624-6905594cbb7b">
          <pickID>smi:local/6428d6a1-506b-4b07-979f-5ba4f888b422</pickID>
          <phase>S</phase>
          <timeCorrection>0.0</timeCorrection>
          <azimuth>295.0</azimuth>
          <distance>2.5</distance>
          <timeResidual>-0.03</timeResidual>
          <timeWeight>0.25</timeWeight>
        </arrival>
        <arrival publicID="smi:local/1e0b0e3c-7511-4889-ae35-ce2691dcba9f">
          <pickID>smi:local/452ad255-21c3-4ab3-8c1a-082887f48b7f</pickID>
          <phase>P</phase>
          <timeCorrection>0.0</timeCorrection>
          <azimuth>295.0</azimuth>
          <distance>2.5</distance>
          <timeResidual>-0.05</timeResidual>
          <timeWeight>1.0</timeWeight>
        </arrival>
        <arrival publicID="smi:local/56fa54f0-d520-453b-b6d8-fabf8a06563b">
          <pickID>smi:local/5df31d6b-9561-4276-a3bb-15a4d5a49f8d</pickID>
          <phase>S</phase>
          <timeCorrection>0.0</timeCorrection>
          <azimuth>46.0</azimuth>
          <distance>2.5</distance>
          <timeResidual>0.18</timeResidual>
          <timeWeight>0.25</timeWeight>
        </arrival>
        <arrival publicID="smi:local/d5fa6a8d-cb0e-4a0a-ab7b-84372ef09c03">
          <pickID>smi:local/1f473f4c-ddee-4e9c-a63f-945c1c600e0c</pickID>
          <phase>P</phase>
          <timeCorrection>0.0</timeCorrection>
          <azimuth>46.0</azimuth>
          <distance>2.5</distance>
          <timeResidual>0.03</timeResidual>
          <timeWeight>1.0</timeWeight>
        </arrival>
        <arrival publicID="smi:local/6ef71b6a-fd53-45d5-ad51-53e8bc6617c9">
          <pickID>smi:local/2c750b97-df18-4ace-9bc5-5685ca1d1446</pickID>
          <phase>S</phase>
          <timeCorrection>0.0</timeCorrection>
          <azimuth>166.0</azimuth>
          <distance>3.5</distance>
          <timeResidual>0.05</timeResidual>
          <timeWeight>1.0</timeWeight>
        </arrival>
        <arrival publicID="smi:local/607be848-19c0-4f34-9bbc-40982edffeeb">
          <pickID>smi:local/96ad5209-c979-41f3-93fe-98a901016d70</pickID>
          <phase>P</phase>
          <timeCorrection>0.0</timeCorrection>
          <azimuth>166.0</azimuth>
          <distance>3.5</distance>
          <timeResidual>-0.01</timeResidual>
          <timeWeight>1.0</timeWeight>
        </arrival>
      </origin>
      <magnitude publicID="smi:local/44718c7a-6983-4f80-af56-41c0adb43e8a">
        <mag>
          <value>-0.2</value>
        </mag>
        <type>ML</type>
        <creationInfo>
          <agencyID>BOB</agencyID>
        </creationInfo>
      </magnitude>
      <magnitude publicID="smi:local/edce0609-7941-4e7e-a5bc-6a800812cde4">
        <mag>
          <value>-0.6313673295577735</value>
          <uncertainty>0.36391138068395423</uncertainty>
          <confidenceLevel>95.0</confidenceLevel>
        </mag>
        <type>ML</type>
        <originID>smi:local/cc6a4d70-545c-4e26-b653-9dc931998c8e</originID>
        <methodID>smi:local/magpy_version0.0.0</methodID>
        <stationCount>11</stationCount>
        <azimuthalGap>120.3134409142871</azimuthalGap>
        <evaluationMode>automatic</evaluationMode>
        <evaluationStatus>reviewed</evaluationStatus>
        <stationMagnitudeContribution>
          <stationMagnitudeID>smi:local/812754f1-e681-4b8a-a2b8-44fcc90cc53a</stationMagnitudeID>
          <weight>1.0</weight>
        </stationMagnitudeContribution>
        <stationMagnitudeContribution>
          <stationMagnitudeID>smi:local/d33609e7-c250-42f5-a2f7-ae05bb0fdd30</stationMagnitudeID>
          <weight>1.0</weight>
        </stationMagnitudeContribution>
        <stationMagnitudeContribution>
          <stationMagnitudeID>smi:local/928e79c7-e926-482e-b6bb-886cbe896ab1</stationMagnitudeID>
          <weight>1.0</weight>
        </stationMagnitudeContribution>
        <stationMagnitudeContribution>
          <stationMagnitudeID>smi:local/5ce61f02-ed55-446d-a69d-0b44535c6581</stationMagnitudeID>
          <weight>1.0</weight>
        </stationMagnitudeContribution>
        <stationMagnitudeContribution>
          <stationMagnitudeID>smi:local/204b1d40-13a7-4990-8ca8-79bb5fc6ef67</stationMagnitudeID>
          <weight>1.0</weight>
        </stationMagnitudeContribution>
        <stationMagnitudeContribution>
          <stationMagnitudeID>smi:local/5d926371-8fd5-4718-85bd-2e3b54808ca2</stationMagnitudeID>
          <weight>1.0</weight>
        </stationMagnitudeContribution>
        <stationMagnitudeContribution>
          <stationMagnitudeID>smi:local/72cf7272-ea3f-43bb-8f77-ce526baf5f6d</stationMagnitudeID>
          <weight>1.0</weight>
        </stationMagnitudeContribution>
        <stationMagnitudeContribution>
          <stationMagnitudeID>smi:local/ad077eaf-6e78-42ed-a68b-4fee51f6d8be</stationMagnitudeID>
          <weight>1.0</weight>
        </stationMagnitudeContribution>
        <stationMagnitudeContribution>
          <stationMagnitudeID>smi:local/314668f7-7ee2-4d1c-b79c-76e1a5ca63e1</stationMagnitudeID>
          <weight>1.0</weight>
        </stationMagnitudeContribution>
        <stationMagnitudeContribution>
          <stationMagnitudeID>smi:local/997c7f54-3655-4152-9560-fdd177730cc5</stationMagnitudeID>
          <weight>1.0</weight>
        </stationMagnitudeContribution>
        <stationMagnitudeContribution>
          <stationMagnitudeID>smi:local/69af7f2e-fd26-4fe3-b830-7512ccf2ec59</stationMagnitudeID>
          <weight>1.0</weight>
        </stationMagnitudeContribution>
        <creationInfo>
          <agencyID>VYMGA</agencyID>
          <author>swave</author>
          <creationTime>2010-11-04T02:43:53.180234Z</creationTime>
          <version>0.0.0</version>
        </creationInfo>
      </magnitude>
      <magnitude publicID="smi:local/7a4262fd-7ba9-47b4-8d93-c3d34af279e7">
        <mag>
          <value>0.383888774265228</value>
          <uncertainty>0.03834201748138116</uncertainty>
          <confidenceLevel>95.0</confidenceLevel>
        </mag>
        <type>MW</type>
        <originID>smi:local/cc6a4d70-545c-4e26-b653-9dc931998c8e</originID>
        <methodID>smi:local/magpy_version0.0.0</methodID>
        <stationCount>8</stationCount>
        <azimuthalGap>127.31183132362452</azimuthalGap>
        <evaluationMode>automatic</evaluationMode>
        <evaluationStatus>reviewed</evaluationStatus>
        <stationMagnitudeContribution>
          <stationMagnitudeID>smi:local/c746baac-70c1-4b28-8340-10abb089cdad</stationMagnitudeID>
          <weight>1.0</weight>
        </stationMagnitudeContribution>
        <stationMagnitudeContribution>
          <stationMagnitudeID>smi:local/ef48e866-d062-4a2a-a464-7e2e1fea55f6</stationMagnitudeID>
          <weight>1.0</weight>
        </stationMagnitudeContribution>
        <stationMagnitudeContribution>
          <stationMagnitudeID>smi:local/5e4be64d-df31-41a1-90fe-4eb8ee4bdd1b</stationMagnitudeID>
          <weight>1.0</weight>
        </stationMagnitudeContribution>
        <stationMagnitudeContribution>
          <stationMagnitudeID>smi:local/3328c48f-9b72-4f34-8f6e-5d96fcad2970</stationMagnitudeID>
          <weight>1.0</weight>
        </stationMagnitudeContribution>
        <stationMagnitudeContribution>
          <stationMagnitudeID>smi:local/e1fdf367-e422-4c56-98e3-000838e7b8dd</stationMagnitudeID>
          <weight>1.0</weight>
        </stationMagnitudeContribution>
        <stationMagnitudeContribution>
          <stationMagnitudeID>smi:local/f00f0bb6-f838-4c2e-bc4d-7d2ba60b26dc</stationMagnitudeID>
          <weight>1.0</weight>
        </stationMagnitudeContribution>
        <stationMagnitudeContribution>
          <stationMagnitudeID>smi:local/49f35bfb-045d-4824-a822-db356a96d61d</stationMagnitudeID>
          <weight>1.0</weight>
        </stationMagnitudeContribution>
        <stationMagnitudeContribution>
          <stationMagnitudeID>smi:local/dee1a6d8-8f2a-4402-86e7-2166275910ae</stationMagnitudeID>
          <weight>1.0</weight>
        </stationMagnitudeContribution>
        <creationInfo>
          <agencyID>VYMGA</agencyID>
          <author>swave</author>
          <creationTime>2010-11-04T02:44:08.652927Z</creationTime>
          <version>0.0.0</version>
        </creationInfo>
      </magnitude>
      <stationMagnitude publicID="smi:local/812754f1-e681-4b8a-a2b8-44fcc90cc53a">
        <originID>smi:local/cc6a4d70-545c-4e26-b653-9dc931998c8e</originID>
        <mag>
          <value>-0.2674559488738193</value>
        </mag>
        <type>ML</type>
        <amplitudeID>smi:local/12c836b2-78de-49f4-8ba4-662df65f353e</amplitudeID>
        <methodID>smi:local/magpy_version0.0.0</methodID>
        <waveformID channelCode="HNE" locationCode="--" networkCode="PS" stationCode="PSGH"></waveformID>
        <creationInfo>
          <agencyID>VYMGA</agencyID>
          <author>swave</author>
          <creationTime>2010-11-04T02:43:53.180348Z</creationTime>
          <version>0.0.0</version>
        </creationInfo>
      </stationMagnitude>
      <stationMagnitude publicID="smi:local/d33609e7-c250-42f5-a2f7-ae05bb0fdd30">
        <originID>smi:local/cc6a4d70-545c-4e26-b653-9dc931998c8e</originID>
        <mag>
          <value>-0.6649104410258626</value>
        </mag>
        <type>ML</type>
        <amplitudeID>smi:local/84bc305e-cb4e-4184-825e-7a73412b4890</amplitudeID>
        <methodID>smi:local/magpy_version0.0.0</methodID>
        <waveformID channelCode="HNN" locationCode="" networkCode="PS" stationCode="PSGH"></waveformID>
        <creationInfo>
          <agencyID>VYMGA</agencyID>
          <author>swave</author>
          <creationTime>2010-11-04T02:43:53.180457Z</creationTime>
          <version>0.0.0</version>
        </creationInfo>
      </stationMagnitude>
      <stationMagnitude publicID="smi:local/928e79c7-e926-482e-b6bb-886cbe896ab1">
        <originID>smi:local/cc6a4d70-545c-4e26-b653-9dc931998c8e</originID>
        <mag>
          <value>-0.2146328779492226</value>
        </mag>
        <type>ML</type>
        <amplitudeID>smi:local/99701919-3698-4db9-84d8-4c39a39c99ac</amplitudeID>
        <methodID>smi:local/magpy_version0.0.0</methodID>
        <waveformID channelCode="ENE" locationCode="" networkCode="PS" stationCode="PSSW"></waveformID>
        <creationInfo>
          <agencyID>VYMGA</agencyID>
          <author>swave</author>
          <creationTime>2010-11-04T02:43:53.180564Z</creationTime>
          <version>0.0.0</version>
        </creationInfo>
      </stationMagnitude>
      <stationMagnitude publicID="smi:local/5ce61f02-ed55-446d-a69d-0b44535c6581">
        <originID>smi:local/cc6a4d70-545c-4e26-b653-9dc931998c8e</originID>
        <mag>
          <value>-0.6792531566448703</value>
        </mag>
        <type>ML</type>
        <amplitudeID>smi:local/fa7ac48d-eca2-476e-9e71-ca9bbb1202af</amplitudeID>
        <methodID>smi:local/magpy_version0.0.0</methodID>
        <waveformID channelCode="HHN" locationCode="" networkCode="PS" stationCode="PSN"></waveformID>
        <creationInfo>
          <agencyID>VYMGA</agencyID>
          <author>swave</author>
          <creationTime>2010-11-04T02:43:53.180671Z</creationTime>
          <version>0.0.0</version>
        </creationInfo>
      </stationMagnitude>
      <stationMagnitude publicID="smi:local/204b1d40-13a7-4990-8ca8-79bb5fc6ef67">
        <originID>smi:local/cc6a4d70-545c-4e26-b653-9dc931998c8e</originID>
        <mag>
          <value>-0.7675140605444135</value>
        </mag>
        <type>ML</type>
