<?xml version='1.0' encoding='utf-8'?>
<q:quakeml xmlns:q="http://quakeml.org/xmlns/quakeml/1.2" xmlns="http://quakeml.org/xmlns/bed/1.2">
  <eventParameters publicID="smi:local/5a97e7f0-7d4a-4ae6-a6c0-db2918a53eaa">
    <event publicID="smi:local/9986cd8d-e427-49eb-8d43-e00b26c8a42f">
      <preferredOriginID>smi:local/5f168f5b-6181-4f9c-ade4-f7787f4dc81b</preferredOriginID>
      <preferredMagnitudeID>smi:local/360e59ca-5d88-4b23-970b-0d9a561a2d4f</preferredMagnitudeID>
      <description>
        <text>LR</text>
      </description>
      <origin publicID="smi:local/fdf5d75c-21d2-4166-9f48-8eec4c97758f">
        <time>
          <value>2010-10-17T05:45:13.200000Z</value>
        </time>
        <latitude>
          <value>54.619148102003194</value>
          <uncertainty>0.29</uncertainty>
        </latitude>
        <longitude>
          <value>-85.71805855260982</value>
          <uncertainty>0.29</uncertainty>
        </longitude>
        <depth>
          <value>1.74</value>
          <uncertainty>0.25</uncertainty>
        </depth>
        <quality>
          <associatedPhaseCount>16</associatedPhaseCount>
          <standardError>0.06</standardError>
          <azimuthalGap>46.0</azimuthalGap>
        </quality>
        <creationInfo>
          <agencyID>BOB</agencyID>
          <author>SB</author>
          <creationTime>2010-10-18T15:57:00.000000Z</creationTime>
        </creationInfo>
        <originUncertainty>
          <horizontalUncertainty>0.29</horizontalUncertainty>
        </originUncertainty>
        <arrival publicID="smi:local/c05a4153-806c-4425-9813-6699592a1e1c">
          <pickID>smi:local/0e1a78da-ff46-47ac-9d30-5b7908df2e79</pickID>
          <phase>P</phase>
          <azimuth>162.0</azimuth>
          <timeResidual>-0.09</timeResidual>
          <timeWeight>1.0</timeWeight>
        </arrival>
        <arrival publicID="smi:local/e709ec0f-8f11-49a0-8040-ce854b134332">
          <pickID>smi:local/519bd356-ba7d-4fea-a05d-0d10453e78a6</pickID>
          <phase>P</phase>
          <azimuth>192.0</azimuth>
          <timeResidual>-0.06</timeResidual>
          <timeWeight>1.0</timeWeight>
        </arrival>
        <arrival publicID="smi:local/9da72d5d-8788-41a4-ae6b-0b5d4f96b6ff">
          <pickID>smi:local/990bc9e0-d16b-45fb-9b69-2ee2a1500fea</pickID>
          <phase>P</phase>
          <azimuth>156.0</azimuth>
          <timeResidual>-0.05</timeResidual>
          <timeWeight>1.0</timeWeight>
        </arrival>
        <arrival publicID="smi:local/2ee59761-2051-4bc9-a332-561903cba3b1">
          <pickID>smi:local/da87cfe9-f189-42ea-b572-029079033cd2</pickID>
          <phase>S</phase>
          <azimuth>156.0</azimuth>
          <timeResidual>-0.5</timeResidual>
          <timeWeight>0.5</timeWeight>
        </arrival>
        <arrival publicID="smi:local/d64aa91f-8101-4ec8-b7ca-d0c7aad9f983">
          <pickID>smi:local/02021476-0f66-40c2-8e98-7cbf4e7e589f</pickID>
          <phase>P</phase>
          <azimuth>339.0</azimuth>
          <timeResidual>0.03</timeResidual>
          <timeWeight>1.0</timeWeight>
        </arrival>
        <arrival publicID="smi:local/ea8f0b76-33c0-4534-8efe-c488e261fef6">
          <pickID>smi:local/16d2baf7-a445-40f6-9190-50db63900d05</pickID>
          <phase>S</phase>
          <azimuth>339.0</azimuth>
          <timeResidual>1.0</timeResidual>
          <timeWeight>0.5</timeWeight>
        </arrival>
        <arrival publicID="smi:local/67dc76db-48f9-442e-8509-d391d1d2ae3d">
          <pickID>smi:local/c6ac4316-1050-483c-b8fd-16c1ea584975</pickID>
          <phase>P</phase>
          <azimuth>230.0</azimuth>
          <timeResidual>-0.02</timeResidual>
          <timeWeight>1.0</timeWeight>
        </arrival>
        <arrival publicID="smi:local/ca52f2d7-4190-4765-ae77-da1bd88bc11b">
          <pickID>smi:local/eaa4b5d9-a295-4f9a-896d-a53357ae101b</pickID>
          <phase>P</phase>
          <azimuth>293.0</azimuth>
          <timeResidual>-0.02</timeResidual>
          <timeWeight>1.0</timeWeight>
        </arrival>
        <arrival publicID="smi:local/5ce0043c-ecea-4b3f-9a18-da81b88f9f5b">
          <pickID>smi:local/7873e5d7-6114-49ee-8e75-07f37d7cfa97</pickID>
          <phase>P</phase>
          <azimuth>103.0</azimuth>
          <timeResidual>-0.01</timeResidual>
          <timeWeight>1.0</timeWeight>
        </arrival>
        <arrival publicID="smi:local/86c192e9-d59a-48c5-a101-7ebb63f39033">
          <pickID>smi:local/0039fb43-32ab-4705-9cdd-0575648518b5</pickID>
          <phase>P</phase>
          <azimuth>53.0</azimuth>
          <timeResidual>0.11</timeResidual>
          <timeWeight>1.0</timeWeight>
        </arrival>
        <arrival publicID="smi:local/95439da4-b5ff-4a7b-a3db-589aa0ebc853">
          <pickID>smi:local/8ce6299a-d747-4c23-a6b4-bc98c165c396</pickID>
          <phase>S</phase>
          <azimuth>53.0</azimuth>
          <timeResidual>3.0</timeResidual>
          <timeWeight>0.5</timeWeight>
        </arrival>
        <arrival publicID="smi:local/04be90a6-096e-443c-ba5f-377c4eb3c3b2">
          <pickID>smi:local/82f7417b-a9ae-4082-9d18-2deb2f9aac07</pickID>
          <phase>P</phase>
          <azimuth>163.0</azimuth>
          <timeResidual>0.05</timeResidual>
          <timeWeight>1.0</timeWeight>
        </arrival>
        <arrival publicID="smi:local/dfb6db53-f9ac-42f0-9a2a-bfbf54e5ac67">
          <pickID>smi:local/bafb09d3-0214-443a-80c4-0a5f8ac7a2f8</pickID>
          <phase>S</phase>
          <azimuth>163.0</azimuth>
          <timeResidual>1.2</timeResidual>
          <timeWeight>0.5</timeWeight>
        </arrival>
        <arrival publicID="smi:local/4343be64-b5d9-4a0d-9a89-da85fce80808">
          <pickID>smi:local/9cf3a747-9a8b-4751-a629-33c77e382593</pickID>
          <phase>P</phase>
          <azimuth>262.0</azimuth>
          <timeResidual>0.06</timeResidual>
          <timeWeight>1.0</timeWeight>
        </arrival>
        <arrival publicID="smi:local/194e437f-e18f-4f16-b1f5-e2f002233093">
          <pickID>smi:local/7508b0fd-ba00-447e-991f-246e18bb73e1</pickID>
          <phase>P</phase>
          <azimuth>8.0</azimuth>
          <timeResidual>-0.05</timeResidual>
          <timeWeight>1.0</timeWeight>
        </arrival>
        <arrival publicID="smi:local/1f0da996-e430-4a57-9444-ecfe6fd27d5b">
          <pickID>smi:local/b0401385-a017-4639-8c15-c9de8dbdb9e1</pickID>
          <phase>P</phase>
          <azimuth>78.0</azimuth>
          <timeResidual>0.04</timeResidual>
          <timeWeight>0.5</timeWeight>
        </arrival>
        <arrival publicID="smi:local/a56bec74-8639-4fb3-a2da-5058c7edeafd">
          <pickID>smi:local/0f3a10c0-4a90-40f2-b2ba-d2bd23ff6ffc</pickID>
          <phase>P</phase>
          <azimuth>129.0</azimuth>
          <timeResidual>-0.01</timeResidual>
          <timeWeight>1.0</timeWeight>
        </arrival>
        <arrival publicID="smi:local/5fdc49d3-e95b-4634-8aaa-c20602c8e903">
          <pickID>smi:local/6d32ee88-f950-4d8e-9257-adffb19ed323</pickID>
          <phase>P</phase>
          <azimuth>107.0</azimuth>
          <timeResidual>-0.01</timeResidual>
          <timeWeight>0.5</timeWeight>
        </arrival>
        <arrival publicID="smi:local/ede4fa38-0efc-43ea-8440-b74a6d151c70">
          <pickID>smi:local/ee86af0a-f45e-4d64-834d-7c73a1f0c6e1</pickID>
          <phase>P</phase>
          <azimuth>61.0</azimuth>
          <timeResidual>0.37</timeResidual>
          <timeWeight>0.5</timeWeight>
        </arrival>
      </origin>
      <origin publicID="smi:local/5f168f5b-6181-4f9c-ade4-f7787f4dc81b">
        <time>
          <value>2010-10-17T05:45:13.140000Z</value>
        </time>
        <latitude>
          <value>54.616699502330256</value>
        </latitude>
        <longitude>
          <value>-85.72288384417007</value>
        </longitude>
        <depth>
          <value>1.31</value>
          <uncertainty>390.0</uncertainty>
        </depth>
        <methodID>smi:local/pypoinverse_0.0.2/LocateHypoInverse_0.0.0</methodID>
        <quality>
          <associatedPhaseCount>19</associatedPhaseCount>
          <standardError>0.03</standardError>
          <azimuthalGap>50.0</azimuthalGap>
          <minimumDistance>0.0</minimumDistance>
        </quality>
        <creationInfo>
          <agencyID>VYMGA</agencyID>
          <author>swave</author>
          <creationTime>2010-11-01T07:31:54.284174Z</creationTime>
          <version>0.0.0</version>
        </creationInfo>
        <originUncertainty>
          <horizontalUncertainty>240.0</horizontalUncertainty>
        </originUncertainty>
        <arrival publicID="smi:local/98b16992-9bca-4b8c-9d85-536b0da349da">
          <pickID>smi:local/0e1a78da-ff46-47ac-9d30-5b7908df2e79</pickID>
          <phase>P</phase>
          <timeCorrection>0.0</timeCorrection>
          <azimuth>103.0</azimuth>
          <distance>0.3</distance>
          <timeResidual>-0.05</timeResidual>
          <timeWeight>1.0</timeWeight>
        </arrival>
        <arrival publicID="smi:local/d0c42104-26cd-4110-af2e-8891b85ea7e5">
          <pickID>smi:local/519bd356-ba7d-4fea-a05d-0d10453e78a6</pickID>
          <phase>P</phase>
          <timeCorrection>0.0</timeCorrection>
          <azimuth>184.0</azimuth>
          <distance>0.9</distance>
          <timeResidual>0.01</timeResidual>
          <timeWeight>1.0</timeWeight>
        </arrival>
        <arrival publicID="smi:local/573ab3cd-f287-46d6-8f2a-d722bec306ed">
          <pickID>smi:local/da87cfe9-f189-42ea-b572-029079033cd2</pickID>
          <phase>S</phase>
          <timeCorrection>0.0</timeCorrection>
          <azimuth>143.0</azimuth>
          <distance>1.3</distance>
          <timeResidual>-0.01</timeResidual>
          <timeWeight>0.5</timeWeight>
        </arrival>
        <arrival publicID="smi:local/4b64f3d6-47bc-4207-b16b-b809267702d6">
          <pickID>smi:local/990bc9e0-d16b-45fb-9b69-2ee2a1500fea</pickID>
          <phase>P</phase>
          <timeCorrection>0.0</timeCorrection>
          <azimuth>143.0</azimuth>
          <distance>1.3</distance>
          <timeResidual>0.01</timeResidual>
          <timeWeight>1.0</timeWeight>
        </arrival>
        <arrival publicID="smi:local/118e0f82-286e-455a-b86e-9707b9a451a3">
          <pickID>smi:local/c6ac4316-1050-483c-b8fd-16c1ea584975</pickID>
          <phase>P</phase>
          <timeCorrection>0.0</timeCorrection>
          <azimuth>234.0</azimuth>
          <distance>1.4</distance>
          <timeResidual>0.04</timeResidual>
          <timeWeight>1.0</timeWeight>
        </arrival>
        <arrival publicID="smi:local/09ef26d9-0c31-47a8-a531-154de2f37097">
          <pickID>smi:local/16d2baf7-a445-40f6-9190-50db63900d05</pickID>
          <phase>S</phase>
          <timeCorrection>0.0</timeCorrection>
          <azimuth>347.0</azimuth>
          <distance>2.0</distance>
          <timeResidual>0.01</timeResidual>
          <timeWeight>0.5</timeWeight>
        </arrival>
        <arrival publicID="smi:local/ca8e1634-d2b6-41f8-9816-5f94e53b328d">
          <pickID>smi:local/02021476-0f66-40c2-8e98-7cbf4e7e589f</pickID>
          <phase>P</phase>
          <timeCorrection>0.0</timeCorrection>
          <azimuth>347.0</azimuth>
          <distance>2.0</distance>
          <timeResidual>0.0</timeResidual>
          <timeWeight>1.0</timeWeight>
        </arrival>
        <arrival publicID="smi:local/82ab7b68-5b18-4e5e-bf94-fbc8b2251d22">
          <pickID>smi:local/eaa4b5d9-a295-4f9a-896d-a53357ae101b</pickID>
          <phase>P</phase>
          <timeCorrection>0.0</timeCorrection>
          <azimuth>303.0</azimuth>
          <distance>2.2</distance>
          <timeResidual>-0.03</timeResidual>
          <timeWeight>1.0</timeWeight>
        </arrival>
        <arrival publicID="smi:local/16bc327e-f661-44ab-9dc2-2b145887b984">
          <pickID>smi:local/7873e5d7-6114-49ee-8e75-07f37d7cfa97</pickID>
          <phase>P</phase>
          <timeCorrection>0.0</timeCorrection>
          <azimuth>95.0</azimuth>
          <distance>2.6</distance>
          <timeResidual>-0.04</timeResidual>
          <timeWeight>1.0</timeWeight>
        </arrival>
        <arrival publicID="smi:local/d6d360e5-fdf0-4975-8a4e-e30330c010bc">
          <pickID>smi:local/8ce6299a-d747-4c23-a6b4-bc98c165c396</pickID>
          <phase>S</phase>
          <timeCorrection>0.0</timeCorrection>
          <azimuth>50.0</azimuth>
          <distance>2.9</distance>
          <timeResidual>0.13</timeResidual>
          <timeWeight>0.5</timeWeight>
        </arrival>
        <arrival publicID="smi:local/fe61407c-f463-4207-ac87-f54de8e4778b">
          <pickID>smi:local/0039fb43-32ab-4705-9cdd-0575648518b5</pickID>
          <phase>P</phase>
          <timeCorrection>0.0</timeCorrection>
          <azimuth>50.0</azimuth>
          <distance>2.9</distance>
          <timeResidual>0.03</timeResidual>
          <timeWeight>1.0</timeWeight>
        </arrival>
        <arrival publicID="smi:local/d2d2e8cb-a147-436c-9376-aeecd457461b">
          <pickID>smi:local/bafb09d3-0214-443a-80c4-0a5f8ac7a2f8</pickID>
          <phase>S</phase>
          <timeCorrection>0.0</timeCorrection>
          <azimuth>159.0</azimuth>
          <distance>3.5</distance>
          <timeResidual>0.06</timeResidual>
          <timeWeight>0.5</timeWeight>
        </arrival>
        <arrival publicID="smi:local/2afc2f6a-dc0c-4aed-886c-5b60b332c0f0">
          <pickID>smi:local/82f7417b-a9ae-4082-9d18-2deb2f9aac07</pickID>
          <phase>P</phase>
          <timeCorrection>0.0</timeCorrection>
          <azimuth>159.0</azimuth>
          <distance>3.5</distance>
          <timeResidual>0.04</timeResidual>
          <timeWeight>1.0</timeWeight>
        </arrival>
        <arrival publicID="smi:local/64e76439-889c-418b-8923-88e4bd4c2855">
          <pickID>smi:local/9cf3a747-9a8b-4751-a629-33c77e382593</pickID>
          <phase>P</phase>
          <timeCorrection>0.0</timeCorrection>
          <azimuth>263.0</azimuth>
          <distance>12.6</distance>
          <timeResidual>-0.02</timeResidual>
          <timeWeight>1.0</timeWeight>
        </arrival>
        <arrival publicID="smi:local/17db6468-551d-4958-bd6c-f30a14a8ecc0">
          <pickID>smi:local/7508b0fd-ba00-447e-991f-246e18bb73e1</pickID>
          <phase>P</phase>
          <timeCorrection>0.0</timeCorrection>
          <azimuth>8.0</azimuth>
          <distance>54.1</distance>
          <timeResidual>0.01</timeResidual>
          <timeWeight>1.0</timeWeight>
        </arrival>
        <arrival publicID="smi:local/0210de8b-882a-4264-9552-abe3eb083112">
          <pickID>smi:local/b0401385-a017-4639-8c15-c9de8dbdb9e1</pickID>
          <phase>P</phase>
          <timeCorrection>0.0</timeCorrection>
          <azimuth>78.0</azimuth>
          <distance>57.9</distance>
          <timeResidual>0.04</timeResidual>
          <timeWeight>0.5</timeWeight>
        </arrival>
        <arrival publicID="smi:local/dc54a363-8c63-4ba9-a87e-642303e43e65">
          <pickID>smi:local/0f3a10c0-4a90-40f2-b2ba-d2bd23ff6ffc</pickID>
          <phase>P</phase>
          <timeCorrection>0.0</timeCorrection>
          <azimuth>129.0</azimuth>
          <distance>66.4</distance>
          <timeResidual>-0.05</timeResidual>
          <timeWeight>1.0</timeWeight>
        </arrival>
        <arrival publicID="smi:local/67db7bcb-7621-4150-8ab2-b3795c537c10">
          <pickID>smi:local/6d32ee88-f950-4d8e-9257-adffb19ed323</pickID>
          <phase>P</phase>
          <timeCorrection>0.0</timeCorrection>
          <azimuth>107.0</azimuth>
          <distance>78.6</distance>
          <timeResidual>-0.11</timeResidual>
          <timeWeight>0.5</timeWeight>
        </arrival>
        <arrival publicID="smi:local/d8966f6c-0379-47ff-a6c2-4ed8358317ac">
          <pickID>smi:local/ee86af0a-f45e-4d64-834d-7c73a1f0c6e1</pickID>
          <phase>P</phase>
          <timeCorrection>0.0</timeCorrection>
          <azimuth>61.0</azimuth>
          <distance>85.9</distance>
          <timeResidual>0.19</timeResidual>
          <timeWeight>0.5</timeWeight>
        </arrival>
      </origin>
      <magnitude publicID="smi:local/8a595839-e110-4421-9514-3228f897a674">
        <mag>
          <value>2.4</value>
        </mag>
        <type>ML</type>
        <creationInfo>
          <agencyID>BOB</agencyID>
        </creationInfo>
      </magnitude>
      <magnitude publicID="smi:local/e73988f6-1a44-422d-9d2f-4ccffdc12f03">
        <mag>
          <value>2.0</value>
        </mag>
        <type>MC</type>
        <creationInfo>
          <agencyID>BOB</agencyID>
        </creationInfo>
      </magnitude>
      <magnitude publicID="smi:local/1695afec-3bde-48dc-bb71-26148638c3c3">
        <mag>
          <value>1.9051501741960482</value>
          <uncertainty>0.33584373801254364</uncertainty>
          <confidenceLevel>95.0</confidenceLevel>
        </mag>
        <type>ML</type>
        <originID>smi:local/5f168f5b-6181-4f9c-ade4-f7787f4dc81b</originID>
        <methodID>smi:local/magpy_version0.0.0</methodID>
        <stationCount>19</stationCount>
        <azimuthalGap>68.47902895589917</azimuthalGap>
        <evaluationMode>automatic</evaluationMode>
        <evaluationStatus>reviewed</evaluationStatus>
        <stationMagnitudeContribution>
          <stationMagnitudeID>smi:local/329c95ec-7cbb-4f32-90c6-88e18fcafa12</stationMagnitudeID>
          <weight>1.0</weight>
        </stationMagnitudeContribution>
        <stationMagnitudeContribution>
          <stationMagnitudeID>smi:local/539bba00-4680-4fe7-983f-1bcadde35b6e</stationMagnitudeID>
          <weight>1.0</weight>
        </stationMagnitudeContribution>
        <stationMagnitudeContribution>
          <stationMagnitudeID>smi:local/426b64e6-b5c6-4747-82bf-fc139367cd14</stationMagnitudeID>
          <weight>1.0</weight>
        </stationMagnitudeContribution>
        <stationMagnitudeContribution>
          <stationMagnitudeID>smi:local/1de774d2-896e-41ec-bbd2-d156f49536d9</stationMagnitudeID>
          <weight>1.0</weight>
        </stationMagnitudeContribution>
        <stationMagnitudeContribution>
          <stationMagnitudeID>smi:local/e9348fa1-382f-408b-9c07-ce6e6ea846ef</stationMagnitudeID>
          <weight>1.0</weight>
        </stationMagnitudeContribution>
        <stationMagnitudeContribution>
          <stationMagnitudeID>smi:local/4a2b24c2-9c62-455f-b763-e0fe63a922c2</stationMagnitudeID>
          <weight>1.0</weight>
        </stationMagnitudeContribution>
        <stationMagnitudeContribution>
          <stationMagnitudeID>smi:local/19cc21ee-70f1-4f5d-ac01-21428f8cebea</stationMagnitudeID>
          <weight>1.0</weight>
        </stationMagnitudeContribution>
        <stationMagnitudeContribution>
          <stationMagnitudeID>smi:local/05bec6ab-c61c-4daf-9fa9-85131caa198a</stationMagnitudeID>
          <weight>1.0</weight>
        </stationMagnitudeContribution>
        <stationMagnitudeContribution>
          <stationMagnitudeID>smi:local/68883dd1-0574-4206-9955-8e3a3e0d05b6</stationMagnitudeID>
          <weight>1.0</weight>
        </stationMagnitudeContribution>
        <stationMagnitudeContribution>
          <stationMagnitudeID>smi:local/7c72713e-4c61-4449-98af-3cfb92448e2d</stationMagnitudeID>
          <weight>1.0</weight>
        </stationMagnitudeContribution>
        <stationMagnitudeContribution>
          <stationMagnitudeID>smi:local/eec7fc0c-e165-486b-90d4-5899e921b73e</stationMagnitudeID>
          <weight>1.0</weight>
        </stationMagnitudeContribution>
        <stationMagnitudeContribution>
          <stationMagnitudeID>smi:local/cd6b1582-cbcd-4b8c-a1b1-2aa2e91d6f55</stationMagnitudeID>
          <weight>1.0</weight>
        </stationMagnitudeContribution>
        <stationMagnitudeContribution>
          <stationMagnitudeID>smi:local/ffbb6584-48dd-472a-b458-f2b87e0daea4</stationMagnitudeID>
          <weight>1.0</weight>
        </stationMagnitudeContribution>
